{"type": "FeatureCollection", "features": [ {"type": "Feature", "properties": {"norad_id": 54234, "name": "NOAA 21 (JPSS-2)", "group": "weather", "lat": -3.103635316779592, "lon": 116.87924115026168, "alt_km": 831.3743618308881, "timestamp": "2025-12-27T05:29:38.837106+00:00", "meta": {"OBJECT_NAME": "NOAA 21 (JPSS-2)", "OBJECT_ID": "2022-150A", "EPOCH": "2025-12-26T21:52:04.966176", "MEAN_MOTION": 14.19528134, "ECCENTRICITY": 0.00015543, "INCLINATION": 98.7479, "RA_OF_ASC_NODE": 297.0438, "ARG_OF_PERICENTER": 8.0899, "MEAN_ANOMALY": 352.0302, "EPHEMERIS_TYPE": 0, "CLASSIFICATION_TYPE": "U", "NORAD_CAT_ID": 54234, "ELEMENT_SET_NO": 999, "REV_AT_EPOCH": 16210, "BSTAR": 7.8015492e-05, "MEAN_MOTION_DOT": 1.21e-06, "MEAN_MOTION_DDOT": 0}, "tle": {"line1": "1 54234U 22150A   25360.91116859  .00000121  00000+0  78015-4 0  9992", "line2": "2 54234  98.7479 297.0438 0001554   8.0899 352.0302 14.19528134162109"}}, "geometry": {"type": "Point", "coordinates": [116.87924115026168, -3.103635316779592]}}, {"type": "Feature", "properties": {"norad_id": 54743, "name": "METEOSAT-12 (MTG-I1)", "group": "weather", "lat": 0.33142086810786675, "lon": 178.02248522135986, "alt_km": 35786.24197078654, "timestamp": "2025-12-27T05:29:38.837118+00:00", "meta": {"OBJECT_NAME": "METEOSAT-12 (MTG-I1)", "OBJECT_ID": "2022-170C", "EPOCH": "2025-12-26T08:51:38.739168", "MEAN_MOTION": 1.00270911, "ECCENTRICITY": 0.0001715, "INCLINATION": 0.7011, "RA_OF_ASC_NODE": 25.8801, "ARG_OF_PERICENTER": 242.0428, "MEAN_ANOMALY": 319.779, "EPHEMERIS_TYPE": 0, "CLASSIFICATION_TYPE": "U", "NORAD_CAT_ID": 54743, "ELEMENT_SET_NO": 999, "REV_AT_EPOCH": 1124, "BSTAR": 0, "MEAN_MOTION_DOT": 1.4e-07, "MEAN_MOTION_DDOT": 0}, "tle": {"line1": "1 54743U 22170C   25360.36919837  .00000014  00000+0  00000+0 0  9990", "line2": "2 54743   0.7011  25.8801 0001715 242.0428 319.7790  1.00270911 11249"}}, "geometry": {"type": "Point", "coordinates": [178.02248522135986, 0.33142086810786675]}}, {"type": "Feature", "properties": {"norad_id": 55973, "name": "TIANMU-1 03", "group": "weather", "lat": -38.43546652302455, "lon": 170.30004395668067, "alt_km": 447.24841050361283, "timestamp": "2025-12-27T05:29:38.837129+00:00", "meta": {"OBJECT_NAME": "TIANMU-1 03", "OBJECT_ID": "2023-039A", "EPOCH": "2025-12-26T23:25:47.426304", "MEAN_MOTION": 15.41349109, "ECCENTRICITY": 0.000367, "INCLINATION": 97.5115, "RA_OF_ASC_NODE": 164.0294, "ARG_OF_PERICENTER": 18.9695, "MEAN_ANOMALY": 341.1687, "EPHEMERIS_TYPE": 0, "CLASSIFICATION_TYPE": "U", "NORAD_CAT_ID": 55973, "ELEMENT_SET_NO": 999, "REV_AT_EPOCH": 15425, "BSTAR": 0.00043569415, "MEAN_MOTION_DOT": 0.0001811, "MEAN_MOTION_DDOT": 0}, "tle": {"line1": "1 55973U 23039A   25360.97624336  .00018110  00000+0  43569-3 0  9992", "line2": "2 55973  97.5115 164.0294 0003670  18.9695 341.1687 15.41349109154253"}}, "geometry": {"type": "Point", "coordinates": [170.30004395668067, -38.43546652302455]}}, {"type": "Feature", "properties": {"norad_id": 55974, "name": "TIANMU-1 04", "group": "weather", "lat": 81.89064205859556, "lon": 51.171236593605514, "alt_km": 433.21750898797836, "timestamp": "2025-12-27T05:29:38.837183+00:00", "meta": {"OBJECT_NAME": "TIANMU-1 04", "OBJECT_ID": "2023-039B", "EPOCH": "2025-12-26T22:51:40.574880", "MEAN_MOTION": 15.41690795, "ECCENTRICITY": 0.00042781, "INCLINATION": 97.5046, "RA_OF_ASC_NODE": 163.1905, "ARG_OF_PERICENTER": 12.4005, "MEAN_ANOMALY": 347.7346, "EPHEMERIS_TYPE": 0, "CLASSIFICATION_TYPE": "U", "NORAD_CAT_ID": 55974, "ELEMENT_SET_NO": 999, "REV_AT_EPOCH": 15425, "BSTAR": 0.00041433503, "MEAN_MOTION_DOT": 0.00017414, "MEAN_MOTION_DDOT": 0}, "tle": {"line1": "1 55974U 23039B   25360.95255295  .00017414  00000+0  41434-3 0  9990", "line2": "2 55974  97.5046 163.1905 0004278  12.4005 347.7346 15.41690795154259"}}, "geometry": {"type": "Point", "coordinates": [51.171236593605514, 81.89064205859556]}}, {"type": "Feature", "properties": {"norad_id": 55975, "name": "TIANMU-1 05", "group": "weather", "lat": 73.25733135648873, "lon": 9.975298272449276, "alt_km": 434.19803302258424, "timestamp": "2025-12-27T05:29:38.837196+00:00", "meta": {"OBJECT_NAME": "TIANMU-1 05", "OBJECT_ID": "2023-039C", "EPOCH": "2025-12-26T22:48:29.092608", "MEAN_MOTION": 15.41302484, "ECCENTRICITY": 0.00038632, "INCLINATION": 97.5093, "RA_OF_ASC_NODE": 163.6809, "ARG_OF_PERICENTER": 39.0802, "MEAN_ANOMALY": 321.0723, "EPHEMERIS_TYPE": 0, "CLASSIFICATION_TYPE": "U", "NORAD_CAT_ID": 55975, "ELEMENT_SET_NO": 999, "REV_AT_EPOCH": 15423, "BSTAR": 0.00041093402, "MEAN_MOTION_DOT": 0.00017047, "MEAN_MOTION_DDOT": 0}, "tle": {"line1": "1 55975U 23039C   25360.95033672  .00017047  00000+0  41093-3 0  9997", "line2": "2 55975  97.5093 163.6809 0003863  39.0802 321.0723 15.41302484154236"}}, "geometry": {"type": "Point", "coordinates": [9.975298272449276, 73.25733135648873]}}, {"type": "Feature", "properties": {"norad_id": 55976, "name": "TIANMU-1 06", "group": "weather", "lat": 80.18949112686752, "lon": 114.71910409922087, "alt_km": 431.8212438823157, "timestamp": "2025-12-27T05:29:38.837210+00:00", "meta": {"OBJECT_NAME": "TIANMU-1 06", "OBJECT_ID": "2023-039D", "EPOCH": "2025-12-26T22:54:07.470432", "MEAN_MOTION": 15.41743131, "ECCENTRICITY": 0.00041097, "INCLINATION": 97.5103, "RA_OF_ASC_NODE": 164.1618, "ARG_OF_PERICENTER": 32.728, "MEAN_ANOMALY": 327.422, "EPHEMERIS_TYPE": 0, "CLASSIFICATION_TYPE": "U", "NORAD_CAT_ID": 55976, "ELEMENT_SET_NO": 999, "REV_AT_EPOCH": 15425, "BSTAR": 0.00043920325, "MEAN_MOTION_DOT": 0.00018499, "MEAN_MOTION_DDOT": 0}, "tle": {"line1": "1 55976U 23039D   25360.95425313  .00018499  00000+0  43920-3 0  9998", "line2": "2 55976  97.5103 164.1618 0004109  32.7280 327.4220 15.41743131154259"}}, "geometry": {"type": "Point", "coordinates": [114.71910409922087, 80.18949112686752]}}, {"type": "Feature", "properties": {"norad_id": 56232, "name": "FENGYUN 3G", "group": "weather", "lat": -3.9154542919950885, "lon": -24.01308018506158, "alt_km": 412.4439585538812, "timestamp": "2025-12-27T05:29:38.837221+00:00", "meta": {"OBJECT_NAME": "FENGYUN 3G", "OBJECT_ID": "2023-055A", "EPOCH": "2025-12-26T22:31:11.972064", "MEAN_MOTION": 15.52169202, "ECCENTRICITY": 0.00039258, "INCLINATION": 49.9927, "RA_OF_ASC_NODE": 154.1884, "ARG_OF_PERICENTER": 297.083, "MEAN_ANOMALY": 62.9736, "EPHEMERIS_TYPE": 0, "CLASSIFICATION_TYPE": "U", "NORAD_CAT_ID": 56232, "ELEMENT_SET_NO": 999, "REV_AT_EPOCH": 15323, "BSTAR": 0.0005425063, "MEAN_MOTION_DOT": 0.00033183, "MEAN_MOTION_DDOT": 0}, "tle": {"line1": "1 56232U 23055A   25360.93833301  .00033183  00000+0  54251-3 0  9996", "line2": "2 56232  49.9927 154.1884 0003925 297.0830  62.9736 15.52169202153239"}}, "geometry": {"type": "Point", "coordinates": [-24.01308018506158, -3.9154542919950885]}}, {"type": "Feature", "properties": {"norad_id": 57166, "name": "METEOR-M2 3", "group": "weather", "lat": -35.714131602730674, "lon": 60.786621150920155, "alt_km": 815.7355148654651, "timestamp": "2025-12-27T05:29:38.837232+00:00", "meta": {"OBJECT_NAME": "METEOR-M2 3", "OBJECT_ID": "2023-091A", "EPOCH": "2025-12-26T22:55:06.071232", "MEAN_MOTION": 14.24027775, "ECCENTRICITY": 0.00031666, "INCLINATION": 98.636, "RA_OF_ASC_NODE": 54.2447, "ARG_OF_PERICENTER": 323.7639, "MEAN_ANOMALY": 36.3325, "EPHEMERIS_TYPE": 0, "CLASSIFICATION_TYPE": "U", "NORAD_CAT_ID": 57166, "ELEMENT_SET_NO": 999, "REV_AT_EPOCH": 13000, "BSTAR": 2.4609714e-05, "MEAN_MOTION_DOT": 1.3e-07, "MEAN_MOTION_DDOT": 0}, "tle": {"line1": "1 57166U 23091A   25360.95493138  .00000013  00000+0  24610-4 0  9998", "line2": "2 57166  98.6360  54.2447 0003166 323.7639  36.3325 14.24027775130009"}}, "geometry": {"type": "Point", "coordinates": [60.786621150920155, -35.714131602730674]}}, {"type": "Feature", "properties": {"norad_id": 57399, "name": "TIANMU-1 07", "group": "weather", "lat": 5.804147971958604, "lon": -128.4958770410378, "alt_km": 485.43990193494756, "timestamp": "2025-12-27T05:29:38.837242+00:00", "meta": {"OBJECT_NAME": "TIANMU-1 07", "OBJECT_ID": "2023-101A", "EPOCH": "2025-12-26T22:26:59.105184", "MEAN_MOTION": 15.28275296, "ECCENTRICITY": 0.00048773, "INCLINATION": 97.2857, "RA_OF_ASC_NODE": 50.4719, "ARG_OF_PERICENTER": 44.6112, "MEAN_ANOMALY": 315.5519, "EPHEMERIS_TYPE": 0, "CLASSIFICATION_TYPE": "U", "NORAD_CAT_ID": 57399, "ELEMENT_SET_NO": 999, "REV_AT_EPOCH": 13532, "BSTAR": 0.00029696563, "MEAN_MOTION_DOT": 8.111e-05, "MEAN_MOTION_DDOT": 0}, "tle": {"line1": "1 57399U 23101A   25360.93540631  .00008111  00000+0  29697-3 0  9993", "line2": "2 57399  97.2857  50.4719 0004877  44.6112 315.5519 15.28275296135323"}}, "geometry": {"type": "Point", "coordinates": [-128.4958770410378, 5.804147971958604]}}, {"type": "Feature", "properties": {"norad_id": 57400, "name": "TIANMU-1 08", "group": "weather", "lat": -5.3312223496247135, "lon": 51.23851541360664, "alt_km": 481.62846471770354, "timestamp": "2025-12-27T05:29:38.837254+00:00", "meta": {"OBJECT_NAME": "TIANMU-1 08", "OBJECT_ID": "2023-101B", "EPOCH": "2025-12-26T23:13:54.666048", "MEAN_MOTION": 15.28257864, "ECCENTRICITY": 0.00068185, "INCLINATION": 97.2846, "RA_OF_ASC_NODE": 50.2994, "ARG_OF_PERICENTER": 43.3759, "MEAN_ANOMALY": 316.8017, "EPHEMERIS_TYPE": 0, "CLASSIFICATION_TYPE": "U", "NORAD_CAT_ID": 57400, "ELEMENT_SET_NO": 999, "REV_AT_EPOCH": 13532, "BSTAR": 0.00032109846, "MEAN_MOTION_DOT": 8.775e-05, "MEAN_MOTION_DDOT": 0}, "tle": {"line1": "1 57400U 23101B   25360.96799382  .00008775  00000+0  32110-3 0  9998", "line2": "2 57400  97.2846  50.2994 0006818  43.3759 316.8017 15.28257864135325"}}, "geometry": {"type": "Point", "coordinates": [51.23851541360664, -5.3312223496247135]}}]}